ONEWEB-0389             
1 50469U 21132A   25269.92800627 -.00000640  00000+0 -16816-2 0  9996
2 50469  87.9067  58.2270 0002017  88.0721 272.0642 13.17649214183411
ONEWEB-0390             
1 50470U 21132B   25269.92970491  .00000041  00000+0  71227-4 0  9997
2 50470  87.9070  58.2334 0001834 100.1102 260.0237 13.17650095183419
ONEWEB-0391             
1 50471U 21132C   25269.93139851 -.00000007  00000+0 -52497-4 0  9998
2 50471  87.9065  58.2450 0002457  85.2564 274.8848 13.17647859183415
ONEWEB-0392             
1 50472U 21132D   25269.88583136 -.00000024  00000+0 -95467-4 0  9995
2 50472  87.9074  58.2003 0001985  86.9024 273.2335 13.17647645183444
ONEWEB-0393             
1 50473U 21132E   25269.93490398 -.00000032  00000+0 -11659-3 0  9998
2 50473  87.9075  58.2105 0001779  91.0349 269.0986 13.17646928183445
ONEWEB-0394             
1 50474U 21132F   25270.26164240  .00000183  00000+0  43242-3 0  9999
2 50474  87.9212  27.6473 0001762  93.8875 266.2459 13.18685709186946
ONEWEB-0395             
1 50475U 21132G   25269.94317311 -.00000777  00000+0 -22297-2 0  9999
2 50475  87.8788  73.5159 0001880  94.9295 265.2048 13.11416192181213
ONEWEB-0396             
1 50476U 21132H   25270.25504064  .00000096  00000+0  21163-3 0  9993
2 50476  87.9212  27.6608 0001712  95.4275 264.7053 13.18685263186987
ONEWEB-0397             
1 50477U 21132J   25270.26988627  .00000149  00000+0  34460-3 0  9999
2 50477  87.9212  27.6586 0001612  93.1908 266.9409 13.18687591186963
ONEWEB-0398             
1 50478U 21132K   25269.98727398  .00000543  00000+0  14960-2 0  9993
2 50478  87.8797  73.4737 0001866 102.4210 257.7127 13.11415356181117
ONEWEB-0399             
1 50479U 21132L   25269.97371199  .00000346  00000+0  94062-3 0  9990
2 50479  87.8789  73.4966 0001922  76.3290 283.8052 13.11418056181109
ONEWEB-0400             
1 50480U 21132M   25270.24843758  .00000046  00000+0  83128-4 0  9998
2 50480  87.9213  27.6532 0001807 104.5863 255.5470 13.18687783186956
ONEWEB-0401             
1 50481U 21132N   25270.29297672  .00000106  00000+0  23496-3 0  9990
2 50481  87.9214  27.6409 0001513  96.7478 263.3827 13.18687658186964
ONEWEB-0402             
1 50482U 21132P   25270.25669398  .00000096  00000+0  21107-3 0  9990
2 50482  87.9215  27.6412 0001093  91.5651 268.5606 13.18687991186983
ONEWEB-0403             
1 50483U 21132Q   25270.28143096  .00000160  00000+0  37322-3 0  9994
2 50483  87.9215  27.6556 0001822  97.6821 262.4518 13.18686558186948
ONEWEB-0404             
1 50484U 21132R   25269.95503451 -.00000528  00000+0 -15266-2 0  9994
2 50484  87.8790  73.5076 0001976  85.2823 274.8530 13.11417273181190
ONEWEB-0405             
1 50485U 21132S   25270.29628644  .00000125  00000+0  28524-3 0  9999
2 50485  87.9212  27.6376 0001480  91.5504 268.5797 13.18686397187340
ONEWEB-0406             
1 50486U 21132T   25270.28638607  .00000100  00000+0  22090-3 0  9994
2 50486  87.9214  27.6636 0002292  98.9380 261.2012 13.18686296186973
ONEWEB-0407             
1 50487U 21132U   25270.27978461  .00000137  00000+0  31447-3 0  9995
2 50487  87.9215  27.6496 0001551 102.7892 257.3414 13.18686787186919
ONEWEB-0409             
1 50488U 21132V   25269.95334047 -.00000525  00000+0 -15165-2 0  9996
2 50488  87.8795  73.4683 0001985  91.2128 268.9227 13.11415395181085
ONEWEB-0412             
1 50489U 21132W   25270.26823862  .00000147  00000+0  34122-3 0  9994
2 50489  87.9212  27.6639 0001418  94.7946 265.3348 13.18686185187007
ONEWEB-0413             
1 50490U 21132X   25270.27319099  .00000186  00000+0  43888-3 0  9991
2 50490  87.9215  27.6801 0001327 100.6559 259.4723 13.18686160186945
ONEWEB-0414             
1 50491U 21132Y   25270.25834076 -.00000015  00000+0 -70959-4 0  9990
2 50491  87.9213  27.6422 0001555  91.6949 268.4361 13.18685745186977
ONEWEB-0417             
1 50492U 21132Z   25270.26658634  .00000143  00000+0  33075-3 0  9993
2 50492  87.9213  27.6734 0001914  96.4701 263.6649 13.18685114186956
ONEWEB-0418             
1 50493U 21132AA  25270.27635669  .00000156  00000+0  36308-3 0  9994
2 50493  87.9215  27.6575 0002200  93.8152 266.3232 13.18686094187016
ONEWEB-0419             
1 50494U 21132AB  25270.29463785  .00000100  00000+0  22072-3 0  9997
2 50494  87.9210  27.6541 0001999 103.0223 257.1133 13.18685802186936
ONEWEB-0420             
1 50495U 21132AC  25270.25998855  .00000169  00000+0  39681-3 0  9994
2 50495  87.9213  27.6715 0001398 108.2591 251.8694 13.18685295186929
ONEWEB-0421             
1 50496U 21132AD  25270.25339539  .00000010  00000+0 -74998-5 0  9991
2 50496  87.9214  27.6665 0001533  90.5603 269.5704 13.18687100186962
ONEWEB-0424             
1 50497U 21132AE  25269.75854483  .00000038  00000+0  64077-4 0  9990
2 50497  87.9216  27.7599 0002047 108.0898 252.0458 13.18686788186924
ONEWEB-0426             
1 50498U 21132AF  25270.25009928  .00000033  00000+0  51092-4 0  9992
2 50498  87.9211  27.6541 0001885  77.3884 282.7459 13.18685252186935
ONEWEB-0427             
1 50499U 21132AG  25270.28802356  .00000146  00000+0  33689-3 0  9998
2 50499  87.9213  27.6358 0001907  97.7608 262.3741 13.18687553186966
ONEWEB-0429             
1 50500U 21132AH  25270.27483167  .00000117  00000+0  26448-3 0  9998
2 50500  87.9214  27.6689 0001626 103.2494 256.8820 13.18685115186936
ONEWEB-0430             
1 50501U 21132AJ  25270.26328869  .00000068  00000+0  14090-3 0  9990
2 50501  87.9214  27.6652 0001836 109.1520 250.9811 13.18685253186977
ONEWEB-0432             
1 50502U 21132AK  25270.29472391  .00000129  00000+0  29554-3 0  9993
2 50502  87.9207  27.6360 0002633 100.6368 259.5061 13.18691349186939
ONEWEB-0440             
1 50503U 21132AL  25270.28307883  .00000109  00000+0  24365-3 0  9999
2 50503  87.9216  27.6513 0001319  93.3862 266.7421 13.18686604186924
ONEWEB-0450             
1 50504U 21132AM  25270.27660947  .00000133  00000+0  30367-3 0  9998
2 50504  87.9215  27.6774 0001601 109.6758 250.4547 13.18688855186954
ONEWEB-0410             
1 51622U 22012A   25269.94659151  .00000051  00000+0  98438-4 0  9998
2 51622  87.9075  58.1942 0002832  72.4666 287.6775 13.17648029179032
ONEWEB-0411             
1 51623U 22012B   25270.03778223  .00000353  00000+0  97450-3 0  9990
2 51623  87.8738  88.7385 0001776 107.1085 253.0237 13.10370614174822
ONEWEB-0415             
1 51624U 22012C   25270.03446231  .00000512  00000+0  14290-2 0  9999
2 51624  87.8738  88.7411 0001703  97.2243 262.9078 13.10371038174821
ONEWEB-0416             
1 51625U 22012D   25270.04607138  .00000066  00000+0  15280-3 0  9991
2 51625  87.8736  88.7595 0001678  90.1022 270.0297 13.10369762174869
ONEWEB-0422             
1 51626U 22012E   25269.95670769  .00000027  00000+0  36085-4 0  9994
2 51626  87.9071  58.1973 0000918 103.3718 256.7516 13.17648533179143
ONEWEB-0423             
1 51627U 22012F   25269.94995738  .00000025  00000+0  30453-4 0  9991
2 51627  87.9074  58.2080 0001585  91.6300 268.5013 13.17647669179034
ONEWEB-0425             
1 51628U 22012G   25270.05602591 -.00000457  00000+0 -13456-2 0  9991
2 51628  87.8737  88.7267 0001813  79.6392 280.4940 13.10370278174866
ONEWEB-0428             
1 51629U 22012H   25270.03612138  .00000460  00000+0  12816-2 0  9999
2 51629  87.8738  88.7518 0001465  90.8073 269.3223 13.10370496174829
ONEWEB-0431             
1 51630U 22012J   25270.00609136 -.00000363  00000+0 -10752-2 0  9993
2 51630  87.8753  88.7312 0001636 112.5171 247.6130 13.10376429174874
ONEWEB-0434             
1 51631U 22012K   25270.05934512 -.00000498  00000+0 -14622-2 0  9997
2 51631  87.8739  88.7615 0001938  71.1532 288.9806 13.10371656174865
ONEWEB-0435             
1 51632U 22012L   25269.99128503 -.00000588  00000+0 -17210-2 0  9990
2 51632  87.8741  88.7668 0001222  91.5385 268.5882 13.10373463174849
ONEWEB-0436             
1 51633U 22012M   25269.94152144  .00000027  00000+0  36246-4 0  9992
2 51633  87.9067  58.1893 0001475  99.6337 260.4961 13.17647171179019
ONEWEB-0438             
1 51634U 22012N   25270.05104854 -.00000231  00000+0 -69799-3 0  9999
2 51634  87.8735  88.7555 0001728  83.8032 276.3293 13.10369708174887
ONEWEB-0439             
1 51635U 22012P   25270.05436536 -.00000329  00000+0 -97893-3 0  9999
2 51635  87.8737  88.7434 0001557  87.1649 272.9656 13.10370196174863
ONEWEB-0442             
1 51636U 22012Q   25269.93392914  .00000054  00000+0  10525-3 0  9996
2 51636  87.9065  58.2443 0002234  85.8036 274.3351 13.17649010179009
ONEWEB-0443             
1 51637U 22012R   25269.87740053  .00000018  00000+0  12999-4 0  9999
2 51637  87.9064  58.2625 0001612  82.6237 277.5078 13.17652636179041
ONEWEB-0444             
1 51638U 22012S   25270.04441416  .00000147  00000+0  38498-3 0  9996
2 51638  87.8735  88.7451 0001472  85.8915 274.2380 13.10369501174878
ONEWEB-0445             
1 51639U 22012T   25269.98962051 -.00000631  00000+0 -18447-2 0  9992
2 51639  87.8756  88.7115 0001780  91.4405 268.6926 13.10374760174874
ONEWEB-0446             
1 51640U 22012U   25270.04275743  .00000145  00000+0  38039-3 0  9996
2 51640  87.8738  88.7614 0001798  94.5474 265.5858 13.10369446174863
ONEWEB-0448             
1 51641U 22012V   25270.04772903 -.00000061  00000+0 -21231-3 0  9992
2 51641  87.8736  88.7601 0001534  87.9244 272.2059 13.10368912174839
ONEWEB-0449             
1 51642U 22012W   25270.05270916 -.00000334  00000+0 -99229-3 0  9996
2 51642  87.8732  88.7296 0001873  75.4835 284.6500 13.10370089174847
ONEWEB-0451             
1 51643U 22012X   25269.93813363  .00000069  00000+0  14524-3 0  9999
2 51643  87.9073  58.1837 0001693  89.3961 270.7364 13.17647155178995
ONEWEB-0452             
1 51644U 22012Y   25269.93645935  .00000066  00000+0  13760-3 0  9996
2 51644  87.9064  58.2454 0001610  81.2183 278.9131 13.17647894179003
